[{"OBJECT_NAME":"ONEWEB-0256","OBJECT_ID":"2021-060H","EPOCH":"2026-03-09T23:17:12.273216","MEAN_MOTION":13.16593701,"ECCENTRICITY":0.00014718,"INCLINATION":87.9006,"RA_OF_ASC_NODE":248.5213,"ARG_OF_PERICENTER":92.7709,"MEAN_ANOMALY":267.359,"EPHEMERIS_TYPE":0,"CLASSIFICATION_TYPE":"U","NORAD_CAT_ID":48974,"ELEMENT_SET_NO":999,"REV_AT_EPOCH":22657,"BSTAR":-9.0699314e-5,"MEAN_MOTION_DOT":-2.2e-7,"MEAN_MOTION_DDOT":0},{"OBJECT_NAME":"SL-14 DEB","OBJECT_ID":"1991-056C","EPOCH":"2026-03-09T19:45:00.808992","MEAN_MOTION":13.18013758,"ECCENTRICITY":0.00036809,"INCLINATION":82.5539,"RA_OF_ASC_NODE":206.1276,"ARG_OF_PERICENTER":304.5802,"MEAN_ANOMALY":55.4974,"EPHEMERIS_TYPE":0,"CLASSIFICATION_TYPE":"U","NORAD_CAT_ID":45266,"ELEMENT_SET_NO":999,"REV_AT_EPOCH":29203,"BSTAR":0.00029517141,"MEAN_MOTION_DOT":1.28e-6,"MEAN_MOTION_DDOT":0}]
